GIOVE-A                 
1 28922U 05051A   08267.96153743 -.00000013  00000-0  10000-3 0  3965
2 28922  56.0548 164.3848 0007710 331.6257  28.3814  1.70194742 17031
GIOVE-B                 
1 32781U 08020A   08267.81396348 -.00000018  00000-0  10000-3 0   722
2 32781  55.9743 199.3899 0018753 214.2958 145.5703  1.70950914  2574
